start=new Date('2023-02-05T00:00:00.000Z').valueOf();
sats=[{"COUNTRY_CODE":"US","MEAN_MOTION_DOT":"0.00005898","MEAN_ANOMALY":"267.9174","FILE":"3772211","OBJECT_TYPE":"PAYLOAD","MEAN_MOTION_DDOT":"0.0000000000000","ECCENTRICITY":"0.00013790","EPOCH":"2023-02-04T21:29:50.471520","DECAY_DATE":null,"PERIAPSIS":"546.246","REF_FRAME":"TEME","ARG_OF_PERICENTER":"92.1973","INCLINATION":"53.0517","MEAN_MOTION":"15.06404136","TLE_LINE2":"2 47828  53.0517 288.9779 0001379  92.1973 267.9174 15.06404136105982","SITE":"AFETR","SEMIMAJOR_AXIS":"6925.336","OBJECT_NAME":"STARLINK-2415","OBJECT_ID":"2021-018AT","RCS_SIZE":"LARGE","PERIOD":"95.592","REV_AT_EPOCH":"10598","CENTER_NAME":"EARTH","EPHEMERIS_TYPE":"0","ELEMENT_SET_NO":"999","CLASSIFICATION_TYPE":"U","LAUNCH_DATE":"2021-03-11","APOAPSIS":"548.156","TLE_LINE1":"1 47828U 21018AT  23035.89572305  .00005898  00000-0  41444-3 0  9993","RA_OF_ASC_NODE":"288.9779","GP_ID":"224412256","NORAD_CAT_ID":"47828","TIME_SYSTEM":"UTC","BSTAR":"0.00041444000000","MEAN_ELEMENT_THEORY":"SGP4"},{"APOAPSIS":"548.340","LAUNCH_DATE":"2021-03-11","CLASSIFICATION_TYPE":"U","ELEMENT_SET_NO":"999","EPHEMERIS_TYPE":"0","NORAD_CAT_ID":"47829","RA_OF_ASC_NODE":"288.8928","TLE_LINE1":"1 47829U 21018AU  23035.91415526  .00000686  00000-0  64953-4 0  9999","GP_ID":"224439617","MEAN_ELEMENT_THEORY":"SGP4","BSTAR":"0.00006495300000","TIME_SYSTEM":"UTC","PERIOD":"95.592","RCS_SIZE":"LARGE","OBJECT_ID":"2021-018AU","REV_AT_EPOCH":"10631","CENTER_NAME":"EARTH","EPOCH":"2023-02-04T21:56:23.014464","TLE_LINE2":"2 47829  53.0525 288.8928 0001613  94.0453 266.0721 15.06396999106315","MEAN_MOTION":"15.06396999","INCLINATION":"53.0525","DECAY_DATE":null,"PERIAPSIS":"546.106","REF_FRAME":"TEME","ARG_OF_PERICENTER":"94.0453","SITE":"AFETR","OBJECT_NAME":"STARLINK-2416","SEMIMAJOR_AXIS":"6925.358","FILE":"3772514","MEAN_ANOMALY":"266.0721","COUNTRY_CODE":"US","MEAN_MOTION_DOT":"0.00000686","MEAN_MOTION_DDOT":"0.0000000000000","OBJECT_TYPE":"PAYLOAD","ECCENTRICITY":"0.00016130"},{"REV_AT_EPOCH":"10598","CENTER_NAME":"EARTH","RCS_SIZE":"LARGE","OBJECT_ID":"2021-018AV","PERIOD":"95.592","BSTAR":"0.00011758000000","TIME_SYSTEM":"UTC","MEAN_ELEMENT_THEORY":"SGP4","ELEMENT_SET_NO":"999","EPHEMERIS_TYPE":"0","CLASSIFICATION_TYPE":"U","APOAPSIS":"548.207","LAUNCH_DATE":"2021-03-11","GP_ID":"224411982","TLE_LINE1":"1 47830U 21018AV  23035.91046233  .00001470  00000-0  11758-3 0  9992","RA_OF_ASC_NODE":"288.9099","NORAD_CAT_ID":"47830","OBJECT_TYPE":"PAYLOAD","MEAN_MOTION_DDOT":"0.0000000000000","ECCENTRICITY":"0.00014430","MEAN_MOTION_DOT":"0.00001470","COUNTRY_CODE":"US","FILE":"3772213","MEAN_ANOMALY":"268.2197","SITE":"AFETR","OBJECT_NAME":"STARLINK-2419","SEMIMAJOR_AXIS":"6925.343","EPOCH":"2023-02-04T21:51:03.945312","REF_FRAME":"TEME","DECAY_DATE":null,"PERIAPSIS":"546.209","ARG_OF_PERICENTER":"91.8957","INCLINATION":"53.0530","MEAN_MOTION":"15.06401868","TLE_LINE2":"2 47830  53.0530 288.9099 0001443  91.8957 268.2197 15.06401868105983"},{"REV_AT_EPOCH":"10633","CENTER_NAME":"EARTH","PERIOD":"95.592","RCS_SIZE":"LARGE","OBJECT_ID":"2021-018AW","MEAN_ELEMENT_THEORY":"SGP4","BSTAR":"0.00031220000000","TIME_SYSTEM":"UTC","APOAPSIS":"548.113","LAUNCH_DATE":"2021-03-11","CLASSIFICATION_TYPE":"U","ELEMENT_SET_NO":"999","EPHEMERIS_TYPE":"0","NORAD_CAT_ID":"47831","TLE_LINE1":"1 47831U 21018AW  23035.91092405  .00004373  00000-0  31220-3 0  9996","RA_OF_ASC_NODE":"263.8987","GP_ID":"224411953","MEAN_MOTION_DDOT":"0.0000000000000","OBJECT_TYPE":"PAYLOAD","ECCENTRICITY":"0.00013290","FILE":"3772211","MEAN_ANOMALY":"282.2536","COUNTRY_CODE":"US","MEAN_MOTION_DOT":"0.00004373","SITE":"AFETR","OBJECT_NAME":"STARLINK-2420","SEMIMAJOR_AXIS":"6925.327","EPOCH":"2023-02-04T21:51:43.837920","TLE_LINE2":"2 47831  53.0522 263.8987 0001329  77.8601 282.2536 15.06406928106331","MEAN_MOTION":"15.06406928","INCLINATION":"53.0522","DECAY_DATE":null,"PERIAPSIS":"546.272","REF_FRAME":"TEME","ARG_OF_PERICENTER":"77.8601"},{"ELEMENT_SET_NO":"999","CLASSIFICATION_TYPE":"U","EPHEMERIS_TYPE":"0","APOAPSIS":"547.960","LAUNCH_DATE":"2021-03-11","TLE_LINE1":"1 47832U 21018AX  23035.93350013  .00002105  00000-0  16016-3 0  9998","GP_ID":"224412254","RA_OF_ASC_NODE":"278.8087","NORAD_CAT_ID":"47832","TIME_SYSTEM":"UTC","BSTAR":"0.00016016000000","MEAN_ELEMENT_THEORY":"SGP4","OBJECT_ID":"2021-018AX","RCS_SIZE":"LARGE","PERIOD":"95.592","REV_AT_EPOCH":"10613","CENTER_NAME":"EARTH","EPOCH":"2023-02-04T22:24:14.411232","ARG_OF_PERICENTER":"91.0415","DECAY_DATE":null,"PERIAPSIS":"546.433","REF_FRAME":"TEME","INCLINATION":"53.0514","MEAN_MOTION":"15.06405545","TLE_LINE2":"2 47832  53.0514 278.8087 0001103  91.0415 269.0700 15.06405545106139","SITE":"AFETR","SEMIMAJOR_AXIS":"6925.332","OBJECT_NAME":"STARLINK-2422","COUNTRY_CODE":"US","MEAN_MOTION_DOT":"0.00002105","MEAN_ANOMALY":"269.0700","FILE":"3772211","OBJECT_TYPE":"PAYLOAD","MEAN_MOTION_DDOT":"0.0000000000000","ECCENTRICITY":"0.00011030"},{"EPOCH":"2023-02-04T21:25:51.600576","PERIAPSIS":"546.312","DECAY_DATE":null,"REF_FRAME":"TEME","INCLINATION":"53.0534","ARG_OF_PERICENTER":"78.5828","TLE_LINE2":"2 47833  53.0534 278.9830 0001280  78.5828 281.5305 15.06404806106121","MEAN_MOTION":"15.06404806","SITE":"AFETR","OBJECT_NAME":"STARLINK-2423","SEMIMAJOR_AXIS":"6925.334","MEAN_MOTION_DOT":"0.00004383","COUNTRY_CODE":"US","FILE":"3772212","MEAN_ANOMALY":"281.5305","OBJECT_TYPE":"PAYLOAD","MEAN_MOTION_DDOT":"0.0000000000000","ECCENTRICITY":"0.00012800","EPHEMERIS_TYPE":"0","ELEMENT_SET_NO":"999","CLASSIFICATION_TYPE":"U","LAUNCH_DATE":"2021-03-11","APOAPSIS":"548.085","RA_OF_ASC_NODE":"278.9830","TLE_LINE1":"1 47833U 21018AY  23035.89295834  .00004383  00000-0  31292-3 0  9996","GP_ID":"224411973","NORAD_CAT_ID":"47833","BSTAR":"0.00031292000000","TIME_SYSTEM":"UTC","MEAN_ELEMENT_THEORY":"SGP4","RCS_SIZE":"LARGE","OBJECT_ID":"2021-018AY","PERIOD":"95.592","REV_AT_EPOCH":"10612","CENTER_NAME":"EARTH"},{"ELEMENT_SET_NO":"999","CLASSIFICATION_TYPE":"U","EPHEMERIS_TYPE":"0","APOAPSIS":"547.895","LAUNCH_DATE":"2021-03-11","TLE_LINE1":"1 47834U 21018AZ  23035.90400885  .00000313  00000-0  39866-4 0  9998","GP_ID":"224439367","RA_OF_ASC_NODE":"278.9404","NORAD_CAT_ID":"47834","TIME_SYSTEM":"UTC","BSTAR":"0.00003986600000","MEAN_ELEMENT_THEORY":"SGP4","OBJECT_ID":"2021-018AZ","RCS_SIZE":"LARGE","PERIOD":"95.591","REV_AT_EPOCH":"10651","CENTER_NAME":"EARTH","EPOCH":"2023-02-04T21:41:46.364640","DECAY_DATE":null,"PERIAPSIS":"546.459","ARG_OF_PERICENTER":"89.8998","REF_FRAME":"TEME","INCLINATION":"53.0524","MEAN_MOTION":"15.06411866","TLE_LINE2":"2 47834  53.0524 278.9404 0001037  89.8998 270.2110 15.06411866106517","SITE":"AFETR","SEMIMAJOR_AXIS":"6925.312","OBJECT_NAME":"STARLINK-2424","MEAN_MOTION_DOT":"0.00000313","COUNTRY_CODE":"US","MEAN_ANOMALY":"270.2110","FILE":"3772514","OBJECT_TYPE":"PAYLOAD","MEAN_MOTION_DDOT":"0.0000000000000","ECCENTRICITY":"0.00010370"},{"NORAD_CAT_ID":"47835","TLE_LINE1":"1 47835U 21018BA  23035.93121584  .00000810  00000-0  73271-4 0  9998","GP_ID":"224440616","RA_OF_ASC_NODE":"283.9449","LAUNCH_DATE":"2021-03-11","APOAPSIS":"548.210","ELEMENT_SET_NO":"999","EPHEMERIS_TYPE":"0","CLASSIFICATION_TYPE":"U","MEAN_ELEMENT_THEORY":"SGP4","BSTAR":"0.00007327100000","TIME_SYSTEM":"UTC","PERIOD":"95.592","RCS_SIZE":"LARGE","OBJECT_ID":"2021-018BA","CENTER_NAME":"EARTH","REV_AT_EPOCH":"10638","MEAN_MOTION":"15.06400348","TLE_LINE2":"2 47835  53.0528 283.9449 0001440  95.1650 264.9503 15.06400348106384","DECAY_DATE":null,"PERIAPSIS":"546.215","ARG_OF_PERICENTER":"95.1650","REF_FRAME":"TEME","INCLINATION":"53.0528","EPOCH":"2023-02-04T22:20:57.048576","OBJECT_NAME":"STARLINK-2425","SEMIMAJOR_AXIS":"6925.347","SITE":"AFETR","FILE":"3772514","MEAN_ANOMALY":"264.9503","COUNTRY_CODE":"US","MEAN_MOTION_DOT":"0.00000810","ECCENTRICITY":"0.00014400","MEAN_MOTION_DDOT":"0.0000000000000","OBJECT_TYPE":"PAYLOAD"},{"PERIOD":"95.592","OBJECT_ID":"2021-018BB","RCS_SIZE":"LARGE","REV_AT_EPOCH":"10646","CENTER_NAME":"EARTH","APOAPSIS":"548.066","LAUNCH_DATE":"2021-03-11","CLASSIFICATION_TYPE":"U","ELEMENT_SET_NO":"999","EPHEMERIS_TYPE":"0","NORAD_CAT_ID":"47836","GP_ID":"224440351","TLE_LINE1":"1 47836U 21018BB  23035.92245622  .00007964  00000-0  55284-3 0  9998","RA_OF_ASC_NODE":"278.9441","MEAN_ELEMENT_THEORY":"SGP4","TIME_SYSTEM":"UTC","BSTAR":"0.00055284000000","MEAN_ANOMALY":"268.2901","FILE":"3772514","MEAN_MOTION_DOT":"0.00007964","COUNTRY_CODE":"US","MEAN_MOTION_DDOT":"0.0000000000000","OBJECT_TYPE":"PAYLOAD","ECCENTRICITY":"0.00012530","EPOCH":"2023-02-04T22:08:20.217408","MEAN_MOTION":"15.06405006","TLE_LINE2":"2 47836  53.0518 278.9441 0001253  91.8232 268.2901 15.06405006106465","DECAY_DATE":null,"PERIAPSIS":"546.330","INCLINATION":"53.0518","REF_FRAME":"TEME","ARG_OF_PERICENTER":"91.8232","SITE":"AFETR","SEMIMAJOR_AXIS":"6925.333","OBJECT_NAME":"STARLINK-2426"},{"RCS_SIZE":"LARGE","OBJECT_ID":"2021-018BC","PERIOD":"95.592","CENTER_NAME":"EARTH","REV_AT_EPOCH":"10674","RA_OF_ASC_NODE":"259.1108","TLE_LINE1":"1 47837U 21018BC  23035.86531027  .00002662  00000-0  19748-3 0  9994","GP_ID":"224439618","NORAD_CAT_ID":"47837","ELEMENT_SET_NO":"999","CLASSIFICATION_TYPE":"U","EPHEMERIS_TYPE":"0","LAUNCH_DATE":"2021-03-11","APOAPSIS":"548.116","BSTAR":"0.00019748000000","TIME_SYSTEM":"UTC","MEAN_ELEMENT_THEORY":"SGP4","COUNTRY_CODE":"US","MEAN_MOTION_DOT":"0.00002662","FILE":"3772514","MEAN_ANOMALY":"270.1514","ECCENTRICITY":"0.00013350","OBJECT_TYPE":"PAYLOAD","MEAN_MOTION_DDOT":"0.0000000000000","ARG_OF_PERICENTER":"89.9628","DECAY_DATE":null,"PERIAPSIS":"546.267","INCLINATION":"53.0521","REF_FRAME":"TEME","TLE_LINE2":"2 47837  53.0521 259.1108 0001335  89.9628 270.1514 15.06407213106744","MEAN_MOTION":"15.06407213","EPOCH":"2023-02-04T20:46:02.807328","OBJECT_NAME":"STARLINK-2427","SEMIMAJOR_AXIS":"6925.326","SITE":"AFETR"}];
